0 THORAD AGENA D DEB
1 06766U 70025NH  13280.97754909  .00001325  00000-0  97183-3 0  5856
2 06766 100.1920 100.4699 0080484 189.8307 170.1280 13.96400143186699
0 THORAD AGENA D DEB
1 06766U 70025NH  13282.98377121  .00001562  00000-0  11385-2 0  5869
2 06766 100.1920 102.6897 0080424 184.5105 175.5337 13.96407271186977
0 THORAD AGENA D DEB
1 06766U 70025NH  13287.42608997  .00001721  00000-0  12506-2 0  5886
2 06766 100.1922 107.6054 0080360 172.7627 187.4711 13.96420852187593
0 THORAD AGENA D DEB
1 06766U 70025NH  13289.93382867  .00001641  00000-0  11941-2 0  5893
2 06766 100.1925 110.3804 0080300 166.1787 194.1595 13.96432389187940
0 THORAD AGENA D DEB
1 06766U 70025NH  13292.44154769  .00001493  00000-0  10892-2 0  5902
2 06766 100.1927 113.1552 0080242 159.6110 200.8282 13.96441857188292
0 THORAD AGENA D DEB
1 06766U 70025NH  13294.44771057  .00001401  00000-0  10245-2 0  5911
2 06766 100.1926 115.3748 0080147 154.3654 206.1511 13.96449280188574
